"neo","pha","sats","H","diameter","e","a","q","i","om","w","ad","per_y","data_arc","n_obs_used","condition_code"
N,N,1,13.74,5.225,0.1909,2.274,1.840,4.64,227.11,94.30,2.71,3.43,26826,4077,0
N,N,1,13.50,5.192,0.1667,2.257,1.881,7.53,100.98,339.89,2.63,3.39,33709,3715,0
N,N,1,13.35,5.676,0.1104,2.273,2.022,7.03,165.93,280.44,2.52,3.43,23139,4140,0
N,N,1,14.03,3.419,0.1300,2.174,1.892,5.77,62.66,341.69,2.46,3.21,19105,3752,0
N,N,1,13.66,4.816,0.1275,2.239,1.953,3.31,35.44,229.83,2.52,3.35,19968,4698,0
Y,N,1,14.06,4.843,0.7713,1.835,0.420,8.98,309.19,228.14,3.25,2.49,25631,4639,0
N,N,1,16.13,1.878,0.0648,1.523,1.425,20.28,245.02,95.47,1.62,1.88,15765,2192,0
N,N,1,13.78,4.911,0.1543,2.257,1.909,6.24,200.44,81.70,2.60,3.39,26361,4771,0
Y,N,1,16.75,0.935,0.2964,0.9475,0.667,48.97,58.53,37.42,1.23,0.922,10211,642,0
N,N,1,13.69,4.191,0.1366,2.046,1.767,16.71,237.00,133.36,2.33,2.93,13457,3669,0
N,N,1,14.42,2.823,0.2775,1.839,1.329,11.39,117.68,108.88,2.35,2.49,26362,12490,0
N,N,1,13.26,7.052,0.1353,2.454,2.122,6.26,355.84,25.86,2.79,3.84,25149,4790,0
N,N,1,14.26,2.033,0.1167,1.955,1.727,23.79,88.12,67.73,2.18,2.73,13965,2778,0
N,N,1,13.35,5.046,0.0683,2.383,2.221,6.14,246.87,257.54,2.55,3.68,19206,6937,0
N,N,1,14.32,3.147,0.0751,1.917,1.773,22.55,49.08,290.41,2.06,2.65,12458,11849,0
N,N,1,13.47,,0.0628,2.339,2.192,5.96,326.04,249.85,2.49,3.58,19428,4918,0
N,N,1,13.76,4.483,0.0883,2.28,2.078,4.40,112.46,340.83,2.48,3.44,25147,3677,0
N,N,1,13.15,,0.0943,2.25,2.037,6.78,250.59,124.97,2.46,3.37,25504,5963,0
Y,N,1,15.51,4.3,0.4359,2.144,1.209,7.91,14.11,335.77,3.08,3.14,12371,2501,0
N,N,1,13.53,6.039,0.1660,2.357,1.966,1.70,39.81,311.68,2.75,3.62,24739,3972,0
N,N,1,13.10,,0.1287,2.554,2.225,12.23,275.18,7.67,2.88,4.08,25150,3580,0
N,N,1,13.83,5.653,0.0379,2.137,2.056,2.71,259.01,171.39,2.22,3.12,26482,5986,0
N,N,1,13.79,,0.1334,2.249,1.949,6.61,242.32,131.39,2.55,3.37,24971,3506,0
N,N,1,14.24,2.672,0.1168,1.928,1.703,24.01,125.30,263.66,2.15,2.68,16767,2864,0
N,N,1,13.96,4.728,0.0718,1.91,1.773,27.52,141.25,208.75,2.05,2.64,12526,4086,0
N,N,1,13.68,3.526,0.2145,2.332,1.832,5.90,189.25,164.10,2.83,3.56,23493,7015,0
N,N,1,12.96,6.347,0.2360,2.313,1.767,23.00,147.17,258.75,2.86,3.52,26979,3918,0
N,N,1,13.66,4.057,0.1350,2.33,2.016,3.40,303.81,69.36,2.64,3.56,26952,3744,0
N,N,1,13.79,4.795,0.0762,2.203,2.035,5.68,1.05,139.80,2.37,3.27,26926,7781,0
N,N,2,13.94,,0.1841,2.379,1.941,4.21,315.25,87.20,2.82,3.67,21193,3224,0
N,N,1,13.79,,0.1523,2.159,1.830,5.39,331.27,51.60,2.49,3.17,32996,4561,0
N,N,1,13.38,8.105,0.1782,2.302,1.892,8.01,299.71,52.34,2.71,3.49,25452,3722,0
N,N,1,13.73,4.954,0.1926,2.166,1.749,4.11,45.14,281.69,2.58,3.19,19832,5873,0
N,N,1,14.57,,0.1430,2.294,1.966,5.99,35.47,351.69,2.62,3.47,25292,4957,0
N,N,1,14.00,3.739,0.0771,1.937,1.787,26.29,76.82,265.82,2.09,2.7,12811,7176,0
N,N,1,14.79,3.139,0.1272,2.17,1.894,1.80,129.36,81.02,2.45,3.2,22947,3361,0
N,N,1,13.29,8.074,0.1810,2.445,2.003,12.07,115.79,193.37,2.89,3.82,16237,5099,0
N,N,1,13.45,5.287,0.1401,2.258,1.942,7.05,18.10,242.52,2.57,3.39,19104,7690,0
N,N,1,14.91,,0.3327,2.356,1.572,4.58,193.19,144.07,3.14,3.62,19171,2447,0
Y,N,1,16.84,1.298,0.3900,1.981,1.209,8.30,102.61,354.77,2.75,2.79,15468,1423,0
N,N,1,13.93,9.015,0.2114,2.308,1.820,5.49,321.11,245.68,2.80,3.51,25113,5312,0
N,N,1,14.08,5.421,0.0864,1.938,1.770,21.79,315.29,86.39,2.11,2.7,14043,4724,0
N,N,1,13.29,6.680,0.2037,2.341,1.864,6.86,275.65,204.24,2.82,3.58,22987,4640,0
N,N,1,12.67,,0.0854,2.743,2.508,6.99,42.97,119.75,2.98,4.54,16527,6306,0
Y,Y,1,17.70,1.8,0.4846,1.772,0.913,15.17,61.28,232.29,2.63,2.36,12735,2603,0
N,N,1,13.14,6.251,0.1115,2.59,2.301,14.30,174.97,18.82,2.88,4.17,14011,3972,0
N,N,1,13.34,4.911,0.3193,2.371,1.614,21.80,278.21,113.19,3.13,3.65,17696,3186,0
N,N,1,13.54,5.473,0.1995,2.241,1.794,6.73,23.48,331.98,2.69,3.36,14748,8896,0
N,N,1,14.07,3.910,0.2112,2.407,1.899,3.56,106.09,235.09,2.92,3.73,15465,3560,0
N,N,1,13.11,7.447,0.1485,2.298,1.956,7.20,61.38,143.66,2.64,3.48,17413,4042,0
Y,N,1,15.19,2.298,0.6631,2.437,0.821,26.08,165.90,323.02,4.05,3.81,12427,1430,0
Y,N,1,15.33,1.680,0.3462,1.262,0.825,36.91,111.26,349.18,1.70,1.42,16475,5075,0
N,N,1,14.49,2.941,0.0771,1.877,1.733,21.97,195.70,154.18,2.02,2.57,13783,4642,0
N,N,1,14.99,1.690,0.0748,1.925,1.781,19.94,217.67,145.93,2.07,2.67,12357,2748,0
N,N,1,12.97,,0.2127,2.634,2.073,17.20,135.50,36.25,3.19,4.27,25347,4270,0
N,N,1,14.17,4.773,0.1586,2.25,1.893,5.43,48.92,320.84,2.61,3.37,13055,8923,0
N,N,1,15.18,,0.2206,2.241,1.747,4.78,208.61,143.59,2.74,3.36,13656,3782,0
N,N,1,14.31,5.748,0.5546,3.28,1.461,40.79,88.86,55.35,5.10,5.94,11494,3691,0
N,N,1,13.88,4.197,0.1725,2.224,1.840,5.91,132.57,141.97,2.61,3.32,25128,4127,0
N,N,1,14.43,,0.1182,1.913,1.687,19.57,247.87,171.13,2.14,2.65,11747,3331,0
N,N,1,14.29,4.115,0.2295,2.29,1.764,5.10,214.55,148.47,2.82,3.46,25682,3162,0
N,N,1,13.24,6.176,0.1079,2.581,2.303,12.65,346.38,211.78,2.86,4.15,26606,3693,0
N,N,1,14.39,3.573,0.1842,2.286,1.865,5.03,210.60,155.80,2.71,3.46,15440,2689,0
N,N,1,14.97,2.840,0.1128,2.225,1.974,6.14,165.51,281.68,2.48,3.32,26266,4903,0
N,N,1,14.13,5.332,0.1046,2.669,2.390,1.96,278.61,130.25,2.95,4.36,17088,2626,0
N,N,1,14.09,8.850,0.2001,2.289,1.831,9.43,97.72,125.40,2.75,3.46,24079,4583,0
N,N,1,13.58,4.613,0.3346,2.564,1.706,16.44,317.97,32.61,3.42,4.11,14017,2879,0
N,N,1,14.50,3.476,0.2054,2.27,1.803,4.05,76.79,267.72,2.74,3.42,16878,3714,0
N,N,1,14.11,3.589,0.1643,2.217,1.853,8.06,182.84,165.20,2.58,3.3,15268,4553,0
N,N,1,13.86,4.785,0.1315,2.42,2.102,2.62,165.44,20.85,2.74,3.77,18515,4473,0
N,N,1,14.67,3.552,0.2009,2.236,1.787,4.56,223.58,114.99,2.69,3.34,13101,3085,0
N,N,1,15.22,,0.0696,1.944,1.809,19.30,224.61,69.62,2.08,2.71,16233,2230,0
N,N,1,14.35,3.203,0.2317,2.579,1.982,3.51,10.74,59.20,3.18,4.14,26603,3503,0
N,N,1,13.31,,0.3163,1.996,1.365,29.75,263.29,344.90,2.63,2.82,26799,6176,0
N,N,1,13.62,4.988,0.1406,2.212,1.901,4.86,108.19,290.40,2.52,3.29,15113,3659,0
N,N,1,14.79,,0.1876,2.264,1.839,5.83,2.91,17.45,2.69,3.41,17652,2407,0
N,N,1,12.68,10.875,0.2708,2.36,1.721,23.28,68.77,252.03,3.00,3.63,25762,4060,0
N,N,1,14.79,,0.2373,2.164,1.650,3.14,308.39,9.66,2.68,3.18,16113,3339,0
N,N,1,13.79,4.021,0.2684,2.582,1.889,12.30,343.76,12.71,3.27,4.15,12039,2809,0
N,N,1,14.68,2.859,0.1774,2.271,1.868,4.60,265.96,14.33,2.67,3.42,11765,3032,0
N,N,1,14.79,,0.2343,2.366,1.812,2.75,143.97,210.51,2.92,3.64,16146,2742,0
N,N,1,14.42,3.742,0.1703,2.222,1.844,8.18,62.74,177.26,2.60,3.31,24757,3205,0
N,N,1,14.81,,0.3145,2.209,1.514,26.79,175.44,119.54,2.90,3.28,25419,2841,0
Y,N,1,17.41,,0.2550,1.72,1.281,14.43,132.60,140.66,2.16,2.26,15145,1631,0
N,N,1,14.67,1.720,0.0797,1.948,1.793,22.03,190.83,149.96,2.10,2.72,25498,2800,0
N,N,1,13.81,5.253,0.1383,2.4,2.068,2.42,7.60,181.11,2.73,3.72,26979,4262,0
N,N,1,14.37,3.078,0.2851,2.299,1.644,21.92,313.73,77.98,2.95,3.49,13422,2674,0
N,N,1,14.12,4.055,0.2067,2.237,1.775,6.42,285.99,39.67,2.70,3.35,12701,4331,0
N,N,1,9.96,57.341,0.0700,5.179,4.816,15.04,241.53,137.47,5.54,11.8,17278,2573,0
N,N,1,14.25,4.515,0.2139,2.316,1.820,6.41,153.77,207.72,2.81,3.52,13938,4556,0
N,N,1,14.06,,0.0231,2.84,2.774,2.44,34.29,222.17,2.91,4.79,19252,2648,0
N,N,1,14.56,,0.1842,2.204,1.798,5.29,199.73,290.80,2.61,3.27,26939,4019,0
N,N,1,14.21,3.446,0.1935,2.32,1.871,8.49,66.09,55.32,2.77,3.53,25594,3077,0
N,N,1,14.61,,0.2059,2.192,1.740,4.27,222.76,57.13,2.64,3.24,15884,2869,0
N,N,1,14.02,3.348,0.1440,2.398,2.053,5.46,243.37,104.50,2.74,3.71,26465,3402,0
N,N,1,14.81,2.144,0.0738,1.917,1.775,22.98,184.37,265.70,2.06,2.65,14573,2936,0
N,N,1,13.74,4.506,0.1938,2.287,1.844,6.83,273.28,66.27,2.73,3.46,12844,3868,0
N,N,1,13.36,4.942,0.0764,2.379,2.198,6.10,98.14,256.67,2.56,3.67,25220,4215,0
N,N,1,14.54,,0.2472,2.363,1.779,2.38,13.66,358.04,2.95,3.63,27083,2721,0
N,N,1,15.54,1.953,0.0844,2.186,2.002,3.73,320.26,178.88,2.37,3.23,12556,2424,0
N,N,1,13.46,4.988,0.1833,2.578,2.106,12.69,286.38,47.68,3.05,4.14,26678,3559,0
N,N,1,13.93,5.682,0.0853,2.847,2.604,2.88,135.95,220.35,3.09,4.8,10706,3317,0
N,N,1,15.67,,0.2991,1.904,1.335,19.35,143.74,153.41,2.47,2.63,14739,2235,0
N,N,1,14.98,,0.2148,2.32,1.822,6.36,261.37,92.04,2.82,3.53,11254,2800,0
N,N,1,15.11,,0.0849,1.926,1.762,21.65,35.49,1.61,2.09,2.67,14113,2571,0
N,N,1,15.07,,0.3615,2.171,1.386,29.75,75.29,133.08,2.96,3.2,25592,2652,0
N,N,1,14.86,2.899,0.1982,2.228,1.786,5.75,265.68,41.38,2.67,3.33,20267,2827,0
N,N,1,15.92,2.151,0.1006,2.319,2.085,3.79,188.55,108.84,2.55,3.53,16927,1806,0
N,N,1,15.07,,0.0892,1.811,1.650,31.61,102.79,73.34,1.97,2.44,16803,2529,0
N,N,1,5.78,,0.3731,48.12,30.166,13.47,183.00,132.25,66.07,334,15002,372,2
N,N,1,14.49,,0.0514,2.342,2.222,4.53,263.01,285.18,2.46,3.58,10716,2965,0
N,N,1,15.87,,0.1067,2.198,1.963,4.72,72.93,261.00,2.43,3.26,9549,2086,0
N,N,1,13.43,4.987,0.1544,1.918,1.622,19.69,268.68,58.93,2.21,2.66,10511,4002,0
N,N,1,14.80,1.816,0.0277,1.963,1.909,22.26,174.01,78.21,2.02,2.75,12064,2844,0
N,N,1,13.62,5.089,0.1893,2.354,1.908,24.67,316.16,186.18,2.80,3.61,15702,3323,0
Y,N,1,17.62,,0.3914,2.016,1.227,6.50,222.69,156.21,2.80,2.86,16315,1566,0
Y,N,1,17.24,,0.4297,2.03,1.157,5.96,299.73,350.50,2.90,2.89,9377,637,0
N,N,1,13.21,10.625,0.2668,2.393,1.755,10.74,323.89,18.78,3.03,3.7,20568,4262,0
N,N,1,14.63,,0.1928,2.192,1.769,6.31,221.79,144.25,2.61,3.25,11726,3557,0
N,N,1,14.77,,0.2813,2.224,1.598,6.50,303.81,353.32,2.85,3.32,25148,2880,0
N,N,1,14.95,,0.3810,2.255,1.396,8.68,66.42,42.08,3.11,3.39,22462,2319,0
Y,Y,1,16.91,0.929,0.1442,1.137,0.973,13.91,139.34,206.95,1.30,1.21,10771,4050,0
N,N,1,13.38,5.928,0.1864,2.562,2.085,12.70,339.08,62.65,3.04,4.1,15593,2962,0
N,N,1,14.32,3.423,0.1935,2.323,1.874,24.17,182.24,3.23,2.77,3.54,11092,3121,0
N,N,1,4.82,,0.2733,39.28,28.542,15.47,169.44,68.02,50.01,246,9939,845,1
N,N,1,7.64,192.000,0.5340,37.52,17.485,2.43,352.02,158.51,57.55,230,12227,504,1
N,N,1,15.84,,0.1887,2.349,1.906,1.97,126.23,204.02,2.79,3.6,9674,1646,0
N,N,1,15.76,,0.1636,2.177,1.820,4.40,181.98,181.13,2.53,3.21,9144,1943,0
